[{"OBJECT_NAME":"SHIYAN-21 (SY-21)","OBJECT_ID":"2022-172A","EPOCH":"2026-03-09T23:40:42.191616","MEAN_MOTION":15.28197132,"ECCENTRICITY":0.00206059,"INCLINATION":35.9768,"RA_OF_ASC_NODE":332.6944,"ARG_OF_PERICENTER":79.3933,"MEAN_ANOMALY":280.9121,"EPHEMERIS_TYPE":0,"CLASSIFICATION_TYPE":"U","NORAD_CAT_ID":54752,"ELEMENT_SET_NO":999,"REV_AT_EPOCH":18050,"BSTAR":0.00041186164,"MEAN_MOTION_DOT":0.00011616,"MEAN_MOTION_DDOT":0},{"OBJECT_NAME":"STARLINK-35745","OBJECT_ID":"2025-247G","EPOCH":"2026-03-09T15:18:34.465824","MEAN_MOTION":15.30194771,"ECCENTRICITY":0.0001112,"INCLINATION":53.1585,"RA_OF_ASC_NODE":191.8333,"ARG_OF_PERICENTER":68.6478,"MEAN_ANOMALY":291.4642,"EPHEMERIS_TYPE":0,"CLASSIFICATION_TYPE":"U","NORAD_CAT_ID":66271,"ELEMENT_SET_NO":999,"REV_AT_EPOCH":2107,"BSTAR":0.0011911,"MEAN_MOTION_DOT":0.00035079,"MEAN_MOTION_DDOT":0}]
